GLOBALSTAR M057         
1 25943U 99058A   24240.89927784 -.00000042  00000+0  45952-3 0  9994
2 25943  51.9973 100.5330 0002825 115.2574 244.8569 12.24792805130993
GLOBALSTAR M059         
1 25944U 99058B   24240.82659721 -.00000079  00000+0  90441-4 0  9995
2 25944  52.0009 280.8027 0000461 108.5385  62.8482 11.99964598538827
GLOBALSTAR M056         
1 25945U 99058C   24240.91875334 -.00000037  00000+0  59038-3 0  9996
2 25945  51.9962 290.0425 0000488 302.6983 230.0085 12.04776723127278
GLOBALSTAR M039         
1 25961U 99062A   24240.87885122 -.00000057  00000+0  26362-3 0  9996
2 25961  51.9842  82.0589 0003563  62.7298 297.3931 12.62301180143171
GLOBALSTAR M034         
1 25962U 99062B   24240.79309650 -.00000040  00000+0  65064-3 0  9999
2 25962  51.9880  54.0322 0013496 204.3370 168.0921 11.79431492103771
GLOBALSTAR M029         
1 25963U 99062C   24240.96105413 -.00000062  00000+0  29541-3 0  9994
2 25963  51.9794 168.7234 0002247 270.9032 167.9031 11.99882501133920
GLOBALSTAR M061         
1 25964U 99062D   24240.76367405 -.00000023  00000+0  94423-3 0  9992
2 25964  51.9759 234.2558 0005931 133.1151  38.3274 11.76764517 86631
